norad_id,name,regime,epoch,line1,line2,inclination,eccentricity,mean_motion,raan,arg_pericenter,mean_anomaly
20083,RADUGA 1-1,EGO,23165.55712556,1 20083U 89048A   23165.55712556 -.00000032  00000-0  00000-0 0    15,2 20083  13.8728 342.8637 0023569 123.9501 213.9793  0.98708597120429,13.8728,0.0023569,0.98708597,342.8637,123.9501,213.9793
20083,RADUGA 1-1,EGO,23166.22309583,1 20083U 89048A   23166.22309583 -.00000044  00000-0  00000-0 0    15,2 20083  13.8721 342.8587 0023573 124.0050  90.5850  0.98708840120437,13.8721,0.0023573,0.9870884,342.8587,124.005,90.585
20083,RADUGA 1-1,EGO,23167.21956616,1 20083U 89048A   23167.21956616 -.00000066  00000-0  00000-0 0    14,2 20083  13.8710 342.8512 0023591 124.0918  84.6077  0.98709232120448,13.871,0.0023591,0.98709232,342.8512,124.0918,84.6077
20083,RADUGA 1-1,EGO,23167.61471774,1 20083U 89048A   23167.61471774 -.00000075  00000-0  00000+0 0   553,2 20083  13.8706 342.8482 0023605 124.1188 225.0040  0.98709396120447,13.8706,0.0023605,0.98709396,342.8482,124.1188,225.004
20083,RADUGA 1-1,EGO,23167.68560644,1 20083U 89048A   23167.68560644 -.00000077  00000-0  00000-0 0    19,2 20083  13.8705 342.8476 0023604 124.1214 250.1930  0.98709429120453,13.8705,0.0023604,0.98709429,342.8476,124.1214,250.193
20083,RADUGA 1-1,EGO,23168.60660681,1 20083U 89048A   23168.60660681 -.00000100  00000-0  00000-0 0    11,2 20083  13.8695 342.8406 0023613 124.1941 217.4122  0.98709797120458,13.8695,0.0023613,0.98709797,342.8406,124.1941,217.4122
20083,RADUGA 1-1,EGO,23168.68794080,1 20083U 89048A   23168.68794080 -.00000103  00000-0  00000-0 0    13,2 20083  13.8694 342.8400 0023612 124.2017 246.3085  0.98709841120465,13.8694,0.0023612,0.98709841,342.84,124.2017,246.3085
20083,RADUGA 1-1,EGO,23169.60350640,1 20083U 89048A   23169.60350640 -.00000127  00000-0  00000-0 0    12,2 20083  13.8684 342.8331 0023619 124.2815 211.5907  0.98710199120465,13.8684,0.0023619,0.98710199,342.8331,124.2815,211.5907
20083,RADUGA 1-1,EGO,23170.19163095,1 20083U 89048A   23170.19163095 -.00000143  00000-0  00000-0 0    12,2 20083  13.8678 342.8286 0023619 124.3434  60.5296  0.98710420120476,13.8678,0.0023619,0.9871042,342.8286,124.3434,60.5296
20083,RADUGA 1-1,EGO,23170.69275417,1 20083U 89048A   23170.69275417 -.00000156  00000-0  00000-0 0    13,2 20083  13.8672 342.8248 0023624 124.3754 238.5815  0.98710603120487,13.8672,0.0023624,0.98710603,342.8248,124.3754,238.5815
20083,RADUGA 1-1,EGO,23172.61758686,1 20083U 89048A   23172.61758686 -.00000204  00000-0  00000-0 0    15,2 20083  13.8652 342.8103 0023620 124.5469 202.4382  0.98711164120499,13.8652,0.002362,0.98711164,342.8103,124.5469,202.4382
20083,RADUGA 1-1,EGO,23172.71848487,1 20083U 89048A   23172.71848487 -.00000206  00000-0  00000+0 0   577,2 20083  13.8651 342.8095 0023623 124.5664 238.2746  0.98711180120497,13.8651,0.0023623,0.9871118,342.8095,124.5664,238.2746
20083,RADUGA 1-1,EGO,23174.77380141,1 20083U 89048A   23174.77380141 -.00000244  00000-0  00000+0 0   586,2 20083  13.8629 342.7940 0023609 124.7615 248.4814  0.98711487120514,13.8629,0.0023609,0.98711487,342.794,124.7615,248.4814
20083,RADUGA 1-1,EGO,23176.77822619,1 20083U 89048A   23176.77822619 -.00000259  00000-0  00000+0 0   596,2 20083  13.8606 342.7789 0023582 124.9313 240.6286  0.98711424120537,13.8606,0.0023582,0.98711424,342.7789,124.9313,240.6286
20083,RADUGA 1-1,EGO,23178.78329627,1 20083U 89048A   23178.78329627 -.00000251  00000-0  00000+0 0   604,2 20083  13.8585 342.7637 0023548 125.0642 233.0413  0.98711012120557,13.8585,0.0023548,0.98711012,342.7637,125.0642,233.0413
20083,RADUGA 1-1,EGO,23180.78801663,1 20083U 89048A   23180.78801663 -.00000222  00000-0  00000+0 0   611,2 20083  13.8564 342.7484 0023518 125.1819 225.3409  0.98710285120570,13.8564,0.0023518,0.98710285,342.7484,125.1819,225.3409
20083,RADUGA 1-1,EGO,23182.79467343,1 20083U 89048A   23182.79467343 -.00000176  00000-0  00000+0 0   626,2 20083  13.8543 342.7327 0023494 125.2631 218.3591  0.98709343120598,13.8543,0.0023494,0.98709343,342.7327,125.2631,218.3591
20083,RADUGA 1-1,EGO,23184.86874421,1 20083U 89048A   23184.86874421 -.00000120  00000-0  00000+0 0   635,2 20083  13.8522 342.7165 0023481 125.3127 235.3590  0.98708335120613,13.8522,0.0023481,0.98708335,342.7165,125.3127,235.359
20083,RADUGA 1-1,EGO,23187.37465639,1 20083U 89048A   23187.37465639 -.00000054  00000-0  00000+0 0   648,2 20083  13.8497 342.6969 0023489 125.3812  45.7921  0.98707327120637,13.8497,0.0023489,0.98707327,342.6969,125.3812,45.7921
20083,RADUGA 1-1,EGO,23189.45081677,1 20083U 89048A   23189.45081677 -.00000010  00000-0  00000+0 0   658,2 20083  13.8476 342.6807 0023512 125.4535  63.4985  0.98706825120656,13.8476,0.0023512,0.98706825,342.6807,125.4535,63.4985
20083,RADUGA 1-1,EGO,23191.97271670,1 20083U 89048A   23191.97271670  .00000019  00000-0  00000+0 0   661,2 20083  13.8450 342.6614 0023560 125.6126 239.5111  0.98706755120687,13.845,0.002356,0.98706755,342.6614,125.6126,239.5111
20083,RADUGA 1-1,EGO,23194.46241199,1 20083U 89048A   23194.46241199  .00000014  00000-0  00000+0 0   699,2 20083  13.8424 342.6425 0023587 125.8075  44.0466  0.98707298120700,13.8424,0.0023587,0.98707298,342.6425,125.8075,44.0466
20083,RADUGA 1-1,EGO,23197.54093753,1 20083U 89048A   23197.54093753 -.00000036  00000-0  00000+0 0   709,2 20083  13.8392 342.6190 0023605 126.0896  57.7489  0.98708509120733,13.8392,0.0023605,0.98708509,342.619,126.0896,57.7489
20083,RADUGA 1-1,EGO,23199.54558293,1 20083U 89048A   23199.54558293 -.00000085  00000-0  00000+0 0   711,2 20083  13.8370 342.6038 0023598 126.2736  49.9421  0.98709387120752,13.837,0.0023598,0.98709387,342.6038,126.2736,49.9421
20083,RADUGA 1-1,EGO,23201.62171074,1 20083U 89048A   23201.62171074 -.00000137  00000-0  00000+0 0   721,2 20083  13.8348 342.5881 0023576 126.4675  67.5345  0.98710205120776,13.8348,0.0023576,0.98710205,342.5881,126.4675,67.5345
20083,RADUGA 1-1,EGO,23205.12950149,1 20083U 89048A   23205.12950149 -.00000204  00000-0  00000-0 0    16,2 20083  13.8311 342.5618 0023506 126.7422 233.8222  0.98711021120814,13.8311,0.0023506,0.98711021,342.5618,126.7422,233.8222
20083,RADUGA 1-1,EGO,23205.63075448,1 20083U 89048A   23205.63075448 -.00000210  00000-0  00000-0 0    19,2 20083  13.8306 342.5580 0023502 126.7632  51.9319  0.98711056120820,13.8306,0.0023502,0.98711056,342.558,126.7632,51.9319
20083,RADUGA 1-1,EGO,23210.05887522,1 20083U 89048A   23210.05887522 -.00000222  00000-0  00000+0 0   747,2 20083  13.8261 342.5238 0023407 126.9760 185.3436  0.98710572120866,13.8261,0.0023407,0.98710572,342.5238,126.976,185.3436
20083,RADUGA 1-1,EGO,23213.21922028,1 20083U 89048A   23213.21922028 -.00000189  00000-0  00000+0 0   752,2 20083  13.8230 342.4991 0023375 127.0550 228.3513  0.98709586120890,13.823,0.0023375,0.98709586,342.4991,127.055,228.3513
20083,RADUGA 1-1,EGO,23215.29518851,1 20083U 89048A   23215.29518851 -.00000152  00000-0  00000+0 0   768,2 20083  13.8210 342.4829 0023378 127.1232 246.0102  0.98708845120910,13.821,0.0023378,0.98708845,342.4829,127.1232,246.0102
20083,RADUGA 1-1,EGO,23219.33698378,1 20083U 89048A   23219.33698378 -.00000062  00000-0  00000+0 0   771,2 20083  13.8176 342.4519 0023407 127.3316 242.0997  0.98707616120952,13.8176,0.0023407,0.98707616,342.4519,127.3316,242.0997
20083,RADUGA 1-1,EGO,23221.37999170,1 20083U 89048A   23221.37999170 -.00000021  00000-0  00000+0 0   788,2 20083  13.8155 342.4363 0023425 127.4699 247.9606  0.98707252120970,13.8155,0.0023425,0.98707252,342.4363,127.4699,247.9606
20083,RADUGA 1-1,EGO,23224.47513868,1 20083U 89048A   23224.47513868  .00000014  00000-0  00000+0 0   790,2 20083  13.8122 342.4130 0023434 127.6872 267.6263  0.98707227121006,13.8122,0.0023434,0.98707227,342.413,127.6872,267.6263
20083,RADUGA 1-1,EGO,23226.48564223,1 20083U 89048A   23226.48564223  .00000015  00000-0  00000+0 0   807,2 20083  13.8099 342.3979 0023412 127.8776 261.8843  0.98707569121021,13.8099,0.0023412,0.98707569,342.3979,127.8776,261.8843
20083,RADUGA 1-1,EGO,23229.47623882,1 20083U 89048A   23229.47623882 -.00000019  00000-0  00000+0 0   812,2 20083  13.8065 342.3753 0023353 128.1244 244.3754  0.98708501121059,13.8065,0.0023353,0.98708501,342.3753,128.1244,244.3754
20083,RADUGA 1-1,EGO,23231.52985150,1 20083U 89048A   23231.52985150 -.00000062  00000-0  00000+0 0   829,2 20083  13.8044 342.3600 0023307 128.2415 254.0365  0.98709338121074,13.8044,0.0023307,0.98709338,342.36,128.2415,254.0365
20083,RADUGA 1-1,EGO,23233.54223740,1 20083U 89048A   23233.54223740 -.00000115  00000-0  00000+0 0   833,2 20083  13.8023 342.3451 0023212 128.4487 248.9632  0.98710186121095,13.8023,0.0023212,0.98710186,342.3451,128.4487,248.9632
20083,RADUGA 1-1,EGO,23236.57940646,1 20083U 89048A   23236.57940646 -.00000197  00000-0  00000-0 0    11,2 20083  13.7992 342.3223 0023127 128.5843 248.1457  0.98711196121132,13.7992,0.0023127,0.98711196,342.3223,128.5843,248.1457
20083,RADUGA 1-1,EGO,23237.45037990,1 20083U 89048A   23237.45037990 -.00000218  00000-0  00000-0 0    12,2 20083  13.7984 342.3156 0023109 128.6129 197.6367  0.98711377121135,13.7984,0.0023109,0.98711377,342.3156,128.6129,197.6367
20083,RADUGA 1-1,EGO,23238.52369958,1 20083U 89048A   23238.52369958 -.00000240  00000-0  00000+0 0   859,2 20083  13.7973 342.3074 0023086 128.6386 219.0397  0.98711516121149,13.7973,0.0023086,0.98711516,342.3074,128.6386,219.0397
20083,RADUGA 1-1,EGO,23239.63242767,1 20083U 89048A   23239.63242767 -.00000258  00000-0  00000-0 0    18,2 20083  13.7962 342.2988 0023044 128.7256 252.9646  0.98711545121168,13.7962,0.0023044,0.98711545,342.2988,128.7256,252.9646
20083,RADUGA 1-1,EGO,23240.61208229,1 20083U 89048A   23240.61208229 -.00000268  00000-0  00000-0 0    14,2 20083  13.7953 342.2913 0023032 128.7540 241.0795  0.98711482121174,13.7953,0.0023032,0.98711482,342.2913,128.754,241.0795
